*******************************************************************************
 Revised: July 31, 2013                  Sun                                 10

 PHYSICAL PROPERTIES (updated 2024-Oct-30):
  GM, km^3/s^2          = 132712440041.93938  Mass, 10^24 kg        = ~1988410
  Vol. mean radius, km  = 695700              Volume, 10^12 km^3    = 1412000
  Solar radius (IAU2015)= 695700 km           Mean density, g/cm^3  = 1.408
  Radius (photosphere)  = 696500 km           Angular diam at 1 AU  = 1919.3"
  Photosphere temp., K  = 6600 (bottom)       Photosphere temp., K  = 4400(top)
  Photospheric depth    = ~500 km             Chromospheric depth   = ~2500 km
  Flatness, f           = 0.00005             Adopted sid. rot. per.= 25.38 d
  Surface gravity       =  274.0 m/s^2        Escape speed, km/s    =  617.7
  Pole (RA,DEC), deg.   = (286.13, 63.87)     Obliquity to ecliptic = 7.25 deg.
  Solar constant (1 AU) = 1367.6 W/m^2        Luminosity, 10^24 J/s = 382.8
  Mass-energy conv rate = 4.260 x 10^9 kg/s   Effective temp, K     = 5772
  Sunspot cycle         = 11.4 yr             Cycle 24 sunspot min. = 2008 A.D.

  Motion relative to nearby stars = apex : R.A.= 271 deg.; DEC.= +30 deg.
                                    speed: 19.4 km/s (0.0112 au/day)
  Motion relative to 2.73K BB/CBR = apex : l= 264.7 +- 0.8; b= 48.2 +- 0.5 deg.
                                    speed: 369 +-11 km/s
*******************************************************************************


*******************************************************************************
Ephemeris / WWW_USER Sun Jan  4 04:02:54 2026 Pasadena, USA      / Horizons
*******************************************************************************
Target body name: Sun (10)                        {source: DE441}
Center body name: Solar System Barycenter (0)     {source: DE441}
Center-site name: BODY CENTER
*******************************************************************************
Start time      : A.D. 2026-Mar-13 00:00:00.0000 TDB
Stop  time      : A.D. 2026-Mar-15 00:00:00.0000 TDB
Step-size       : 10 minutes
*******************************************************************************
Center geodetic : 0.0, 0.0, 0.0                   {E-lon(deg),Lat(deg),Alt(km)}
Center cylindric: 0.0, 0.0, 0.0                   {E-lon(deg),Dxy(km),Dz(km)}
Center radii    : (undefined)
Output units    : KM-S
Calendar mode   : Mixed Julian/Gregorian
Output type     : GEOMETRIC cartesian states
Output format   : 2 (position and velocity)
Reference frame : ICRF
*******************************************************************************
            JDTDB,            Calendar Date (TDB),                      X,                      Y,                      Z,                     VX,                     VY,                     VZ,
**************************************************************************************************************************************************************************************************
$$SOE
2461113.229166667, A.D. 2026-Mar-13 17:30:00.0000, -3.827297643826660E+05, -7.616124292488403E+05, -3.103482026892677E+05,  1.212566944844882E-02,  1.490515373831745E-03,  3.814399090138650E-04,
2461113.236111111, A.D. 2026-Mar-13 17:40:00.0000, -3.827224889930126E+05, -7.616115349059222E+05, -3.103479738107895E+05,  1.212562939602932E-02,  1.490627686022402E-03,  3.814883517268355E-04,
2461113.243055556, A.D. 2026-Mar-13 17:50:00.0000, -3.827152136273912E+05, -7.616106404956172E+05, -3.103477449032457E+05,  1.212558934179564E-02,  1.490739997770858E-03,  3.815367941959510E-04,
2461113.250000000, A.D. 2026-Mar-13 18:00:00.0000, -3.827079382858028E+05, -7.616097460179251E+05, -3.103475159666365E+05,  1.212554928574762E-02,  1.490852309077656E-03,  3.815852364215375E-04,
2461113.256944444, A.D. 2026-Mar-13 18:10:00.0000, -3.827006629682487E+05, -7.616088514728463E+05, -3.103472870009620E+05,  1.212550922788510E-02,  1.490964619943339E-03,  3.816336784039211E-04,
2461113.263888889, A.D. 2026-Mar-13 18:20:00.0000, -3.826933876747297E+05, -7.616079568603812E+05, -3.103470580062225E+05,  1.212546916820793E-02,  1.491076930368447E-03,  3.816821201434274E-04,
2461113.270833333, A.D. 2026-Mar-13 18:30:00.0000, -3.826861124052472E+05, -7.616070621805299E+05, -3.103468289824179E+05,  1.212542910671594E-02,  1.491189240353520E-03,  3.817305616403817E-04,
2461113.277777778, A.D. 2026-Mar-13 18:40:00.0000, -3.826788371598020E+05, -7.616061674332928E+05, -3.103465999295485E+05,  1.212538904340899E-02,  1.491301549899098E-03,  3.817790028951096E-04,
2461113.284722222, A.D. 2026-Mar-13 18:50:00.0000, -3.826715619383954E+05, -7.616052726186702E+05, -3.103463708476145E+05,  1.212534897828690E-02,  1.491413859005722E-03,  3.818274439079356E-04,
2461113.291666667, A.D. 2026-Mar-13 19:00:00.0000, -3.826642867410285E+05, -7.616043777366622E+05, -3.103461417366159E+05,  1.212530891134951E-02,  1.491526167673928E-03,  3.818758846791848E-04,
2461113.298611111, A.D. 2026-Mar-13 19:10:00.0000, -3.826570115677022E+05, -7.616034827872691E+05, -3.103459125965529E+05,  1.212526884259667E-02,  1.491638475904257E-03,  3.819243252091816E-04,
2461113.305555556, A.D. 2026-Mar-13 19:20:00.0000, -3.826497364184177E+05, -7.616025877704911E+05, -3.103456834274257E+05,  1.212522877202821E-02,  1.491750783697244E-03,  3.819727654982502E-04,
2461113.312500000, A.D. 2026-Mar-13 19:30:00.0000, -3.826424612931761E+05, -7.616016926863288E+05, -3.103454542292344E+05,  1.212518869964397E-02,  1.491863091053427E-03,  3.820212055467148E-04,
2461113.319444444, A.D. 2026-Mar-13 19:40:00.0000, -3.826351861919785E+05, -7.616007975347820E+05, -3.103452250019791E+05,  1.212514862544379E-02,  1.491975397973344E-03,  3.820696453548991E-04,
2461113.326388889, A.D. 2026-Mar-13 19:50:00.0000, -3.826279111148259E+05, -7.615999023158512E+05, -3.103449957456600E+05,  1.212510854942750E-02,  1.492087704457529E-03,  3.821180849231266E-04,
2461113.333333333, A.D. 2026-Mar-13 20:00:00.0000, -3.826206360617196E+05, -7.615990070295368E+05, -3.103447664602772E+05,  1.212506847159494E-02,  1.492200010506518E-03,  3.821665242517206E-04,
2461113.340277778, A.D. 2026-Mar-13 20:10:00.0000, -3.826133610326604E+05, -7.615981116758387E+05, -3.103445371458309E+05,  1.212502839194594E-02,  1.492312316120845E-03,  3.822149633410042E-04,
2461113.347222222, A.D. 2026-Mar-13 20:20:00.0000, -3.826060860276496E+05, -7.615972162547575E+05, -3.103443078023213E+05,  1.212498831048035E-02,  1.492424621301046E-03,  3.822634021913004E-04,
2461113.354166667, A.D. 2026-Mar-13 20:30:00.0000, -3.825988110466882E+05, -7.615963207662932E+05, -3.103440784297484E+05,  1.212494822719798E-02,  1.492536926047652E-03,  3.823118408029316E-04,
2461113.361111111, A.D. 2026-Mar-13 20:40:00.0000, -3.825915360897773E+05, -7.615954252104464E+05, -3.103438490281124E+05,  1.212490814209868E-02,  1.492649230361198E-03,  3.823602791762203E-04,
2461113.368055556, A.D. 2026-Mar-13 20:50:00.0000, -3.825842611569180E+05, -7.615945295872169E+05, -3.103436195974134E+05,  1.212486805518228E-02,  1.492761534242217E-03,  3.824087173114886E-04,
2461113.375000000, A.D. 2026-Mar-13 21:00:00.0000, -3.825769862481115E+05, -7.615936338966053E+05, -3.103433901376516E+05,  1.212482796644861E-02,  1.492873837691240E-03,  3.824571552090582E-04,
2461113.381944444, A.D. 2026-Mar-13 21:10:00.0000, -3.825697113633587E+05, -7.615927381386118E+05, -3.103431606488272E+05,  1.212478787589751E-02,  1.492986140708797E-03,  3.825055928692511E-04,
2461113.388888889, A.D. 2026-Mar-13 21:20:00.0000, -3.825624365026607E+05, -7.615918423132366E+05, -3.103429311309402E+05,  1.212474778352880E-02,  1.493098443295421E-03,  3.825540302923885E-04,
2461113.395833333, A.D. 2026-Mar-13 21:30:00.0000, -3.825551616660188E+05, -7.615909464204799E+05, -3.103427015839909E+05,  1.212470768934231E-02,  1.493210745451641E-03,  3.826024674787915E-04,
2461113.402777778, A.D. 2026-Mar-13 21:40:00.0000, -3.825478868534339E+05, -7.615900504603421E+05, -3.103424720079793E+05,  1.212466759333789E-02,  1.493323047177987E-03,  3.826509044287813E-04,
2461113.409722222, A.D. 2026-Mar-13 21:50:00.0000, -3.825406120649072E+05, -7.615891544328234E+05, -3.103422424029056E+05,  1.212462749551535E-02,  1.493435348474988E-03,  3.826993411426783E-04,
2461113.416666667, A.D. 2026-Mar-13 22:00:00.0000, -3.825333373004397E+05, -7.615882583379240E+05, -3.103420127687700E+05,  1.212458739587452E-02,  1.493547649343173E-03,  3.827477776208030E-04,
2461113.423611111, A.D. 2026-Mar-13 22:10:00.0000, -3.825260625600325E+05, -7.615873621756443E+05, -3.103417831055725E+05,  1.212454729441523E-02,  1.493659949783068E-03,  3.827962138634759E-04,
2461113.430555556, A.D. 2026-Mar-13 22:20:00.0000, -3.825187878436867E+05, -7.615864659459844E+05, -3.103415534133134E+05,  1.212450719113732E-02,  1.493772249795203E-03,  3.828446498710167E-04,
2461113.437500000, A.D. 2026-Mar-13 22:30:00.0000, -3.825115131514035E+05, -7.615855696489445E+05, -3.103413236919927E+05,  1.212446708604061E-02,  1.493884549380104E-03,  3.828930856437454E-04,
2461113.444444444, A.D. 2026-Mar-13 22:40:00.0000, -3.825042384831838E+05, -7.615846732845252E+05, -3.103410939416107E+05,  1.212442697912492E-02,  1.493996848538296E-03,  3.829415211819812E-04,
2461113.451388889, A.D. 2026-Mar-13 22:50:00.0000, -3.824969638390288E+05, -7.615837768527264E+05, -3.103408641621674E+05,  1.212438687039009E-02,  1.494109147270306E-03,  3.829899564860436E-04,
2461113.458333333, A.D. 2026-Mar-13 23:00:00.0000, -3.824896892189397E+05, -7.615828803535486E+05, -3.103406343536629E+05,  1.212434675983593E-02,  1.494221445576659E-03,  3.830383915562514E-04,
2461113.465277778, A.D. 2026-Mar-13 23:10:00.0000, -3.824824146229174E+05, -7.615819837869918E+05, -3.103404045160975E+05,  1.212430664746228E-02,  1.494333743457878E-03,  3.830868263929236E-04,
